MALLIGYONG-1            
1 58400U 23179A   24205.62118712  .00009558  00000+0  42644-3 0  9999
2 58400  97.3986  91.8523 0003566  82.5798 277.5843 15.21589192 37265
